{
    "links": {
        "self": "http://www.neowsapp.com/rest/v1/neo/54016666?api_key=iIulBulltgU6a56xZRHN4H3l9WmuAYTsLGpBGhQ2"
    },
    "id": "54016666",
    "neo_reference_id": "54016666",
    "name": "(2020 HF3)",
    "designation": "2020 HF3",
    "nasa_jpl_url": "http://ssd.jpl.nasa.gov/sbdb.cgi?sstr=54016666",
    "absolute_magnitude_h": 24.458,
    "estimated_diameter": {
        "kilometers": {
            "estimated_diameter_min": 0.0341157542,
            "estimated_diameter_max": 0.0762851455
        },
        "meters": {
            "estimated_diameter_min": 34.115754192,
            "estimated_diameter_max": 76.285145477
        },
        "miles": {
            "estimated_diameter_min": 0.0211985403,
            "estimated_diameter_max": 0.0474013771
        },
        "feet": {
            "estimated_diameter_min": 111.9283309833,
            "estimated_diameter_max": 250.2793566867
        }
    },
    "is_potentially_hazardous_asteroid": false,
    "close_approach_data": [
        {
            "close_approach_date": "1976-07-24",
            "close_approach_date_full": "1976-Jul-24 19:26",
            "epoch_date_close_approach": 207084360000,
            "relative_velocity": {
                "kilometers_per_second": "3.723152673",
                "kilometers_per_hour": "13403.3496226349",
                "miles_per_hour": "8328.3202141311"
            },
            "miss_distance": {
                "astronomical": "1.383743374",
                "lunar": "538.276172486",
                "kilometers": "207005061.37701338",
                "miles": "128626980.627329444"
            },
            "orbiting_body": "Juptr"
        },
        {
            "close_approach_date": "2001-06-24",
            "close_approach_date_full": "2001-Jun-24 17:27",
            "epoch_date_close_approach": 993403620000,
            "relative_velocity": {
                "kilometers_per_second": "13.3058942308",
                "kilometers_per_hour": "47901.2192307076",
                "miles_per_hour": "29763.9548047694"
            },
            "miss_distance": {
                "astronomical": "0.2811481053",
                "lunar": "109.3666129617",
                "kilometers": "42059157.707415711",
                "miles": "26134348.7335343718"
            },
            "orbiting_body": "Earth"
        },
        {
            "close_approach_date": "2020-05-19",
            "close_approach_date_full": "2020-May-19 17:35",
            "epoch_date_close_approach": 1589909700000,
            "relative_velocity": {
                "kilometers_per_second": "6.3359106392",
                "kilometers_per_hour": "22809.2783012332",
                "miles_per_hour": "14172.7985088968"
            },
            "miss_distance": {
                "astronomical": "0.077223609",
                "lunar": "30.039983901",
                "kilometers": "11552487.42011283",
                "miles": "7178382.816823854"
            },
            "orbiting_body": "Earth"
        },
        {
            "close_approach_date": "2039-04-19",
            "close_approach_date_full": "2039-Apr-19 00:53",
            "epoch_date_close_approach": 2186787180000,
            "relative_velocity": {
                "kilometers_per_second": "12.2227682537",
                "kilometers_per_hour": "44001.9657134906",
                "miles_per_hour": "27341.1103068076"
            },
            "miss_distance": {
                "astronomical": "0.256115718",
                "lunar": "99.629014302",
                "kilometers": "38314365.88632066",
                "miles": "23807442.995958708"
            },
            "orbiting_body": "Earth"
        },
        {
            "close_approach_date": "2060-04-02",
            "close_approach_date_full": "2060-Apr-02 10:29",
            "epoch_date_close_approach": 2848127340000,
            "relative_velocity": {
                "kilometers_per_second": "3.9632988816",
                "kilometers_per_hour": "14267.8759737971",
                "miles_per_hour": "8865.5032682741"
            },
            "miss_distance": {
                "astronomical": "1.5225829428",
                "lunar": "592.2847647492",
                "kilometers": "227775165.141211836",
                "miles": "141532924.6498258968"
            },
            "orbiting_body": "Juptr"
        }
    ],
    "orbital_data": {
        "orbit_id": "13",
        "orbit_determination_date": "2020-05-29 06:06:46",
        "first_observation_date": "2020-04-19",
        "last_observation_date": "2020-05-28",
        "data_arc_in_days": 39,
        "observations_used": 78,
        "orbit_uncertainty": "6",
        "minimum_orbit_intersection": ".0768175",
        "jupiter_tisserand_invariant": "3.277",
        "epoch_osculation": "2459000.5",
        "eccentricity": ".5545413084428374",
        "semi_major_axis": "2.431621999722576",
        "inclination": "2.509261257271584",
        "ascending_node_longitude": "199.6914450530107",
        "orbital_period": "1384.9768773914",
        "perihelion_distance": "1.08318715435803",
        "perihelion_argument": "37.67953086499783",
        "aphelion_distance": "3.780056845087122",
        "perihelion_time": "2458988.142024870766",
        "mean_anomaly": "3.212234889367816",
        "mean_motion": ".2599321374072751",
        "equinox": "J2000",
        "orbit_class": {
            "orbit_class_type": "AMO",
            "orbit_class_description": "Near-Earth asteroid orbits similar to that of 1221 Amor",
            "orbit_class_range": "1.017 AU < q (perihelion) < 1.3 AU"
        }
    },
    "is_sentry_object": false
}